IRIDIUM 155             
1 43573U 18061E   25078.49942486  .00000065  00000+0  16249-4 0  9992
2 43573  86.3928 246.6355 0002032  84.0716 276.0711 14.34217833348188
IRIDIUM 154             
1 43574U 18061F   25078.55016532  .00000078  00000+0  20772-4 0  9994
2 43574  86.3932 246.7253 0002044  93.8987 266.2442 14.34217846348246
IRIDIUM 163             
1 43575U 18061G   25078.53113362  .00000354  00000+0  11923-3 0  9996
2 43575  86.3928 246.6629 0002196  91.6148 268.5299 14.34218872348213
IRIDIUM 156             
1 43576U 18061H   25078.50576730  .00000065  00000+0  16069-4 0  9992
2 43576  86.3930 246.6805 0001875  82.3029 277.8380 14.34217901348206
IRIDIUM 164             
1 43577U 18061J   25078.55650846 -.00000031  00000+0 -18095-4 0  9995
2 43577  86.3934 246.6927 0001844  98.9197 261.2207 14.34217368348258
IRIDIUM 159             
1 43578U 18061K   25078.52479593  .00000039  00000+0  67724-5 0  9991
2 43578  86.3930 246.6519 0002201  97.3359 262.8087 14.34217798348219
IRIDIUM 180             
1 43922U 19002A   25078.38475575  .00000119  00000+0  35279-4 0  9998
2 43922  86.4050 183.6613 0002196  96.6656 263.4790 14.34217199323807
IRIDIUM 176             
1 43923U 19002B   25078.79484765  .00004024  00000+0  63355-3 0  9999
2 43923  86.6167 183.4900 0002766  98.1221 262.0310 14.72284853332394
IRIDIUM 168             
1 43924U 19002C   25078.37841253  .00001197  00000+0  42027-3 0  9994
2 43924  86.4051 183.7282 0002213  98.7149 261.4297 14.34220372323787
IRIDIUM 173             
1 43925U 19002D   25078.36572617  .00000882  00000+0  30778-3 0  9999
2 43925  86.4045 183.6406 0002267  91.9370 268.2085 14.34219926323769
IRIDIUM 169             
1 43926U 19002E   25078.42726869  .00001218  00000+0  39146-3 0  9999
2 43926  86.4258 215.1842 0003061  64.6804 295.4711 14.38631456324841
IRIDIUM 172             
1 43927U 19002F   25078.70822764  .00000545  00000+0  18755-3 0  9997
2 43927  86.4047 183.5047 0002311  99.2486 260.8971 14.34218868323825
IRIDIUM 175             
1 43928U 19002G   25078.65372815  .00000383  00000+0  56846-4 0  9993
2 43928  86.1523 141.1916 0001765  74.0651 286.0760 14.72230290332364
IRIDIUM 171             
1 43929U 19002H   25078.34035131  .00000048  00000+0  10187-4 0  9993
2 43929  86.4056 183.9134 0001742 103.0050 257.1340 14.34214831323764
IRIDIUM 170             
1 43930U 19002J   25078.39323365  .00003564  00000+0  56097-3 0  9994
2 43930  86.6167 183.6627 0002218  87.2370 272.9100 14.72268111332347
IRIDIUM 167             
1 43931U 19002K   25078.82239362  .00000959  00000+0  33521-3 0  9998
2 43931  86.4048 183.4755 0001779  88.3774 271.7625 14.34219067323832
IRIDIUM 181             
1 56726U 23068S   25078.51361276  .00000486  00000+0  13838-3 0  9991
2 56726  86.4468 246.6766 0001604  91.8138 268.3247 14.43318526 96859
IRIDIUM 177             
1 56727U 23068T   25078.83690255  .00005534  00000+0  72377-3 0  9991
2 56727  86.2036 184.5040 0002046  89.3141 270.8314 14.80279163 99154
IRIDIUM 174             
1 56728U 23068U   25078.35831111  .00004949  00000+0  64708-3 0  9995
2 56728  86.2041 184.8559 0002104 105.1129 255.0325 14.80262956 99088
IRIDIUM 178             
1 56729U 23068V   25078.48808157  .00005117  00000+0  66920-3 0  9990
2 56729  86.5808 215.2507 0002106 117.8537 242.2898 14.80267037 99101
IRIDIUM 179             
1 56730U 23068W   25078.48266898  .00000093  00000+0  87268-5 0  9990
2 56730  86.6798 222.8458 0001820  88.5626 271.5804 14.80209274 99107
